STARLINK-32002          
1 60200U 24124T   26198.05722457 -.00001530  00000+0 -37540-4 0  9992
2 60200  53.1601  80.8022 0001439  80.8677 279.2487 15.31702184114118
STARLINK-32020          
1 60201U 24124U   26198.06188989 -.00001040  00000+0 -21730-4 0  9990
2 60201  53.1600  80.8282 0001445  89.3083 270.8084 15.31701832114117
STARLINK-32041          
1 60202U 24124V   26198.06655488 -.00000202  00000+0  52698-5 0  9990
2 60202  53.1599  80.8586 0001413  88.9295 271.1868 15.31698720115315
2024-125A               
1 60203U 24125A   26197.84882999  .00054814  00000+0  45414-3 0  9999
2 60203  97.2211  57.1899 0010225 100.4414 259.8002 15.70012770114280
R5-S4                   
1 60206U 24125D   26197.57909088  .00010456  00000+0  23071-3 0  9990
2 60206  97.2363  48.6321 0017545 121.3458 238.9510 15.43910118113664
R5-S2                   
1 60207U 24125E   26197.83300930  .00010913  00000+0  22550-3 0  9990
2 60207  97.2334  49.6710 0017036 119.1189 241.1768 15.45842129113767
MESAT1                  
1 60209U 24125G   26198.03200085  .00046933  00000+0  44705-3 0  9992
2 60209  97.2242  56.2634 0010854 106.5662 253.6792 15.66606856114239
TIANHUI 5C              
1 60211U 24126A   26188.54794272  .00000336  00000+0  42947-4 0  9991
2 60211  97.8222 195.8157 0001584  90.2722 269.8676 14.87578530108919
TIANHUI 5D              
1 60212U 24126B   26188.54794395  .00000344  00000+0  43874-4 0  9997
2 60212  97.8222 195.8233 0002145  93.3279 266.8183 14.87578424108923
TURKSAT 6A              
1 60233U 24127A   26198.20491358  .00000000  00000+0  00000+0 0  9996
2 60233   0.0182 192.5926 0002996 334.4822 243.6919  1.00270613  7318
GRBBETA                 
1 60237U 24128C   26198.15030373  .00001679  00000+0  12511-3 0  9998
2 60237  61.9898 111.1258 0036777 141.0827 219.2924 15.06815785110785
ISTSAT-1                
1 60238U 24128D   26198.28009918  .00003091  00000+0  19017-3 0  9992
2 60238  61.9883  99.7010 0034506 136.9673 223.4131 15.11938192111015
OOV-CUBE (TUBSAT-30)    
1 60240U 24128F   26198.06347753  .00000952  00000+0  85234-4 0  9991
2 60240  61.9940 121.3870 0040878 140.4347 219.9741 15.02878305110605
CURIUM ONE              
1 60242U 24128H   26198.24658326  .00003506  00000+0  20813-3 0  9993
2 60242  61.9783  99.2780 0036081 137.0693 223.3229 15.12881302111009
ROBUSTA-3A (MEDITERRAN*)
1 60243U 24128J   26198.16246593  .00003574  00000+0  21675-3 0  9996
2 60243  61.9863 102.2147 0037890 134.0592 226.3635 15.12002416110953
CATSAT                  
1 60246U 24125J   26198.02089021  .00048484  00000+0  54111-3 0  9992
2 60246  97.2053  50.9881 0020152  76.8167 283.5338 15.62395986112046
GAOFEN-11 05            
1 60249U 24130A   26198.32905637  .00002675  00000+0  11489-3 0  9997
2 60249  97.3989 276.2245 0001839 321.1576  38.9528 15.23547563 90052
STARLINK-32138          
1 60255U 24131A   26197.98182588 -.00000633  00000+0 -86392-5 0  9999
2 60255  53.1594 171.1903 0001086  81.4343 278.6782 15.31698855111821
STARLINK-32212          
1 60256U 24131B   26198.30871504 -.00000510  00000+0 -39670-5 0  9991
2 60256  53.1608 170.3934 0001114  83.1474 276.9656 15.34390308111566
STARLINK-32166          
1 60257U 24131C   26198.25002315  .00015263  00000+0  47458-3 0  9992
2 60257  53.1599 170.9464 0001189  71.5571 177.4463 15.33541579  5819
STARLINK-32200          
1 60258U 24131D   26198.25002315  .00006171  00000+0  19372-3 0  9995
2 60258  53.1613 170.7959 0001089  76.6356 249.3208 15.34383775  5763
STARLINK-32207          
1 60259U 24131E   26197.21705173 -.00001585  00000+0 -41411-4 0  9999
2 60259  53.1600 175.6675 0001097  75.8997 284.2125 15.30185116111398
STARLINK-32125          
1 60260U 24131F   26197.95017366 -.00000123  00000+0  79755-5 0  9991
2 60260  53.1593 171.7038 0001340  69.5345 290.5799 15.30193613111511
STARLINK-32160          
1 60261U 24131G   26197.97672392  .00000776  00000+0  34130-4 0  9990
2 60261  53.1600 171.8610 0001315  88.8979 271.2175 15.34379885111567
STARLINK-32163          
1 60262U 24131H   26197.95848785 -.00000161  00000+0  65905-5 0  9994
2 60262  53.1596 171.0415 0001372  73.9814 286.1338 15.31700195111524
STARLINK-32148          
1 60263U 24131J   26198.31740714  .00000101  00000+0  15015-4 0  9998
2 60263  53.1596 169.7233 0000942  84.7621 275.3488 15.31701491111622
STARLINK-32121          
1 60264U 24131K   26197.94890845 -.00001566  00000+0 -38700-4 0  9992
2 60264  53.1590 171.6927 0001446 107.8544 252.2615 15.31708571111565
STARLINK-32120          
1 60265U 24131L   26197.77471047 -.00000845  00000+0 -16934-4 0  9997
2 60265  53.1580 173.4443 0001599  75.6721 284.4457 15.29355352111525
STARLINK-32205          
1 60266U 24131M   26198.25002315  .00010842  00000+0  36070-3 0  9998
2 60266  53.1578 170.2541 0001239  82.4247 162.8730 15.31693236  5879
STARLINK-32158          
1 60267U 24131N   26198.16066559  .00149802  00000+0  47891-2 0  9990
2 60267  53.1596 170.8721 0002766 144.3391 215.7795 15.31388435111442
STARLINK-32167          
1 60268U 24131P   26198.27777295  .00005233  00000+0  18850-3 0  9992
2 60268  53.1593 170.2007 0000783  75.2456 284.8632 15.30231435111557
STARLINK-32144          
1 60269U 24131Q   26198.29407470 -.00000452  00000+0 -28210-5 0  9993
2 60269  53.1596 169.5784 0000831  67.6423 292.4667 15.31701560111620
STARLINK-32211          
1 60270U 24131R   26197.37577146  .00000061  00000+0  12952-4 0  9990
2 60270  53.1609 174.5265 0001171  87.4800 272.6336 15.34388864111426
STARLINK-32164          
1 60271U 24131S   26198.00002315 -.00008141  00000+0 -23627-3 0  9992
2 60271  53.1608 172.0435 0000947  91.7958 250.2600 15.33575203  5871
STARLINK-32128          
1 60272U 24131T   26197.89752271 -.00000807  00000+0 -15138-4 0  9992
2 60272  53.1590 172.0795 0001415  84.3808 275.7354 15.30192519111502
STARLINK-32206          
1 60273U 24131U   26198.25002315 -.00010601  00000+0 -31151-3 0  9996
2 60273  53.1603 170.8601 0001016  72.8891 223.9958 15.33543739  5763
STARLINK-32155          
1 60274U 24131V   26197.35265539  .00001172  00000+0  49530-4 0  9998
2 60274  53.1600 174.3686 0001306  83.1405 276.9745 15.31704099111329
STARLINK-32152          
1 60275U 24131W   26197.95966938 -.00000501  00000+0 -47782-5 0  9991
2 60275  53.1596 171.7536 0001289  88.8249 271.2899 15.30194458111416
STARLINK-32154          
1 60276U 24131X   26197.95331668  .00002105  00000+0  83134-4 0  9998
2 60276  53.1593 171.7125 0001301  88.4152 271.6997 15.30216125111512
STARLINK-32135          
1 60277U 24131Y   26198.00002315  .00012770  00000+0  38883-3 0  9999
2 60277  53.1592 171.5649 0001581 104.1944 117.7682 15.34366512  5889
STARLINK-32156          
1 60278U 24132A   26197.89543953 -.00001070  00000+0 -24013-4 0  9999
2 60278  53.1592 172.1941 0001282  86.6624 273.4523 15.30189355112561
STARLINK-32010          
1 60279U 24132B   26198.31708733 -.00000095  00000+0  86844-5 0  9993
2 60279  53.1592 169.8546 0000913  84.1053 276.0052 15.31700397111410
STARLINK-32118          
1 60280U 24132C   26197.95441718 -.00001223  00000+0 -29182-4 0  9997
2 60280  53.1601 171.8501 0000971  81.2551 278.8560 15.30186964111356
STARLINK-32038          
1 60281U 24132D   26198.21778414 -.00000440  00000+0 -27288-5 0  9990
2 60281  53.1600 170.6515 0001174  79.6205 280.4928 15.30193839111391
STARLINK-32113          
1 60282U 24132E   26198.25002315  .00021314  00000+0  65817-3 0  9994
2 60282  53.1593 170.5004 0001152  81.6416  96.8692 15.33519108  5863
STARLINK-32037          
1 60283U 24132F   26198.06591842 -.00050616  00000+0 -16519-2 0  9995
2 60283  53.1601 171.1254 0004053  91.7229 268.4237 15.31270231111370
STARLINK-32123          
1 60284U 24132G   26198.30787298 -.00000132  00000+0  76570-5 0  9998
2 60284  53.1594 157.7319 0001284  89.4914 270.6234 15.30196168111582
STARLINK-32122          
1 60285U 24132H   26197.95359161  .00000304  00000+0  21548-4 0  9997
2 60285  53.1589 171.8465 0001089  94.2023 265.9103 15.31709148111350
STARLINK-31656          
1 60286U 24132J   26197.42556124  .00001329  00000+0  56974-4 0  9997
2 60286  53.1593 174.2447 0000915  83.1093 277.0012 15.30201514111271
STARLINK-32114          
1 60287U 24132K   26197.35233333 -.00001291  00000+0 -29830-4 0  9995
2 60287  53.1602 174.4908 0001404  72.5042 287.6113 15.31695621111262
STARLINK-31997          
1 60288U 24132L   26197.93858474 -.00000264  00000+0  32028-5 0  9991
2 60288  53.1606 171.7481 0001167  77.1738 282.9393 15.30192383111356
STARLINK-32000          
1 60289U 24132M   26197.90692006 -.00003607  00000+0 -10455-3 0  9999
2 60289  53.1595 171.5592 0001232  88.1471 271.9672 15.31695343111357
STARLINK-32141          
1 60290U 24132N   26198.28946968  .00386098  00000+0  11406-1 0  9993
2 60290  53.1578 170.3823 0013881 342.9671  17.0863 15.32791521111403
STARLINK-32142          
1 60291U 24132P   26197.94386341 -.00000400  00000+0 -13951-5 0  9992
2 60291  53.1593 171.7819 0001198  79.1363 280.9772 15.30192215111353
STARLINK-32149          
1 60292U 24132Q   26197.93062345 -.00004836  00000+0 -14442-3 0  9998
2 60292  53.1597 171.7080 0001287  66.1253 293.9884 15.31646168111351
STARLINK-32159          
1 60293U 24132R   26197.41922764  .00000158  00000+0  17476-4 0  9994
2 60293  53.1596 174.1957 0001199  84.2080 275.9058 15.30195495111277
STARLINK-32150          
1 60294U 24132S   26198.25002315  .00009358  00000+0  31296-3 0  9995
2 60294  53.1587 170.2689 0001446  83.6904 213.0150 15.31696704  5863
STARLINK-32126          
1 60295U 24132T   26198.31275878 -.00000750  00000+0 -12412-4 0  9998
2 60295  53.1594 169.8213 0001009 100.9288 259.1827 15.31699437111419
STARLINK-32143          
1 60296U 24132U   26197.97717512 -.00000826  00000+0 -14849-4 0  9996
2 60296  53.1593 171.2859 0001392  89.8883 270.2278 15.31699107111365
